{"type": "FeatureCollection", "features": [ {"type": "Feature", "properties": {"norad_id": 40315, "name": "COSMOS 2501 (702K)", "group": "gnss", "lat": 45.86423661463778, "lon": -13.893908292519901, "alt_km": 19113.7062273351, "timestamp": "2025-12-11T07:02:23.972951+00:00", "meta": {"OBJECT_NAME": "COSMOS 2501 (702K)", "OBJECT_ID": "2014-075A", "EPOCH": "2025-12-07T20:13:51.362112", "MEAN_MOTION": 2.13101338, "ECCENTRICITY": 0.00201356, "INCLINATION": 63.6139, "RA_OF_ASC_NODE": 196.9947, "ARG_OF_PERICENTER": 204.4913, "MEAN_ANOMALY": 155.4908, "EPHEMERIS_TYPE": 0, "CLASSIFICATION_TYPE": "U", "NORAD_CAT_ID": 40315, "ELEMENT_SET_NO": 999, "REV_AT_EPOCH": 8577, "BSTAR": 0, "MEAN_MOTION_DOT": 5.4e-07, "MEAN_MOTION_DDOT": 0}, "tle": {"line1": "1 40315U 14075A   25341.84295558  .00000054  00000+0  00000+0 0  9998", "line2": "2 40315  63.6139 196.9947 0020135 204.4913 155.4908  2.13101338 85773"}}, "geometry": {"type": "Point", "coordinates": [-13.893908292519901, 45.86423661463778]}}, {"type": "Feature", "properties": {"norad_id": 40534, "name": "GPS BIIF-9  (PRN 26)", "group": "gnss", "lat": 26.394521073179074, "lon": 10.15963794431039, "alt_km": 20263.14236508438, "timestamp": "2025-12-11T07:02:23.972962+00:00", "meta": {"OBJECT_NAME": "GPS BIIF-9  (PRN 26)", "OBJECT_ID": "2015-013A", "EPOCH": "2025-12-10T02:18:43.739712", "MEAN_MOTION": 2.0056274, "ECCENTRICITY": 0.010694, "INCLINATION": 53.1981, "RA_OF_ASC_NODE": 211.9997, "ARG_OF_PERICENTER": 38.4152, "MEAN_ANOMALY": 322.4192, "EPHEMERIS_TYPE": 0, "CLASSIFICATION_TYPE": "U", "NORAD_CAT_ID": 40534, "ELEMENT_SET_NO": 999, "REV_AT_EPOCH": 7803, "BSTAR": 0, "MEAN_MOTION_DOT": 1.5e-07, "MEAN_MOTION_DDOT": 0}, "tle": {"line1": "1 40534U 15013A   25344.09633958  .00000015  00000+0  00000+0 0  9991", "line2": "2 40534  53.1981 211.9997 0106940  38.4152 322.4192  2.00562740 78033"}}, "geometry": {"type": "Point", "coordinates": [10.15963794431039, 26.394521073179074]}}, {"type": "Feature", "properties": {"norad_id": 40544, "name": "GSAT0203 (GALILEO 7)", "group": "gnss", "lat": -39.535578579186364, "lon": -160.630937282108, "alt_km": 23212.190052722173, "timestamp": "2025-12-11T07:02:23.972975+00:00", "meta": {"OBJECT_NAME": "GSAT0203 (GALILEO 7)", "OBJECT_ID": "2015-017A", "EPOCH": "2025-12-07T23:40:17.742144", "MEAN_MOTION": 1.70475816, "ECCENTRICITY": 0.00065218, "INCLINATION": 56.8473, "RA_OF_ASC_NODE": 346.8096, "ARG_OF_PERICENTER": 270.7048, "MEAN_ANOMALY": 89.2382, "EPHEMERIS_TYPE": 0, "CLASSIFICATION_TYPE": "U", "NORAD_CAT_ID": 40544, "ELEMENT_SET_NO": 999, "REV_AT_EPOCH": 6594, "BSTAR": 0, "MEAN_MOTION_DOT": -8.6e-07, "MEAN_MOTION_DDOT": 0}, "tle": {"line1": "1 40544U 15017A   25341.98631646 -.00000086  00000+0  00000+0 0  9992", "line2": "2 40544  56.8473 346.8096 0006521 270.7048  89.2382  1.70475816 65945"}}, "geometry": {"type": "Point", "coordinates": [-160.630937282108, -39.535578579186364]}}, {"type": "Feature", "properties": {"norad_id": 40545, "name": "GSAT0204 (GALILEO 8)", "group": "gnss", "lat": 53.08329736108332, "lon": 47.176766519265904, "alt_km": 23234.096051466455, "timestamp": "2025-12-11T07:02:23.972986+00:00", "meta": {"OBJECT_NAME": "GSAT0204 (GALILEO 8)", "OBJECT_ID": "2015-017B", "EPOCH": "2025-12-10T14:06:53.390880", "MEAN_MOTION": 1.70475544, "ECCENTRICITY": 0.00062454, "INCLINATION": 56.8532, "RA_OF_ASC_NODE": 346.7563, "ARG_OF_PERICENTER": 262.7612, "MEAN_ANOMALY": 97.1843, "EPHEMERIS_TYPE": 0, "CLASSIFICATION_TYPE": "U", "NORAD_CAT_ID": 40545, "ELEMENT_SET_NO": 999, "REV_AT_EPOCH": 2903, "BSTAR": 0, "MEAN_MOTION_DOT": -8.8e-07, "MEAN_MOTION_DDOT": 0}, "tle": {"line1": "1 40545U 15017B   25344.58811795 -.00000088  00000+0  00000+0 0  9999", "line2": "2 40545  56.8532 346.7563 0006245 262.7612  97.1843  1.70475544 29039"}}, "geometry": {"type": "Point", "coordinates": [47.176766519265904, 53.08329736108332]}}, {"type": "Feature", "properties": {"norad_id": 40549, "name": "BEIDOU-3S IGSO-1S (C31)", "group": "gnss", "lat": -13.370777638937717, "lon": -73.98952643610554, "alt_km": 35914.57393206556, "timestamp": "2025-12-11T07:02:23.972997+00:00", "meta": {"OBJECT_NAME": "BEIDOU-3S IGSO-1S (C31)", "OBJECT_ID": "2015-019A", "EPOCH": "2025-12-07T20:38:38.671584", "MEAN_MOTION": 1.00293516, "ECCENTRICITY": 0.00368211, "INCLINATION": 49.562, "RA_OF_ASC_NODE": 297.7693, "ARG_OF_PERICENTER": 193.8977, "MEAN_ANOMALY": 348.5751, "EPHEMERIS_TYPE": 0, "CLASSIFICATION_TYPE": "U", "NORAD_CAT_ID": 40549, "ELEMENT_SET_NO": 999, "REV_AT_EPOCH": 3915, "BSTAR": 0, "MEAN_MOTION_DOT": -1.86e-06, "MEAN_MOTION_DDOT": 0}, "tle": {"line1": "1 40549U 15019A   25341.86016981 -.00000186  00000+0  00000+0 0  9996", "line2": "2 40549  49.5620 297.7693 0036821 193.8977 348.5751  1.00293516 39155"}}, "geometry": {"type": "Point", "coordinates": [-73.98952643610554, -13.370777638937717]}}, {"type": "Feature", "properties": {"norad_id": 40730, "name": "GPS BIIF-10 (PRN 08)", "group": "gnss", "lat": 22.687751365006797, "lon": -67.59666213688752, "alt_km": 19885.1424740616, "timestamp": "2025-12-11T07:02:23.973009+00:00", "meta": {"OBJECT_NAME": "GPS BIIF-10 (PRN 08)", "OBJECT_ID": "2015-033A", "EPOCH": "2025-12-10T18:08:59.885952", "MEAN_MOTION": 2.00565667, "ECCENTRICITY": 0.01108361, "INCLINATION": 54.1324, "RA_OF_ASC_NODE": 274.8545, "ARG_OF_PERICENTER": 26.7633, "MEAN_ANOMALY": 333.8214, "EPHEMERIS_TYPE": 0, "CLASSIFICATION_TYPE": "U", "NORAD_CAT_ID": 40730, "ELEMENT_SET_NO": 999, "REV_AT_EPOCH": 7621, "BSTAR": 0, "MEAN_MOTION_DOT": -6.3e-07, "MEAN_MOTION_DDOT": 0}, "tle": {"line1": "1 40730U 15033A   25344.75624868 -.00000063  00000+0  00000+0 0  9998", "line2": "2 40730  54.1324 274.8545 0110836  26.7633 333.8214  2.00565667 76213"}}, "geometry": {"type": "Point", "coordinates": [-67.59666213688752, 22.687751365006797]}}, {"type": "Feature", "properties": {"norad_id": 40748, "name": "BEIDOU-3S M2S (C58)", "group": "gnss", "lat": -48.05085871389274, "lon": -102.57048213888686, "alt_km": 21502.801426372578, "timestamp": "2025-12-11T07:02:23.973020+00:00", "meta": {"OBJECT_NAME": "BEIDOU-3S M2S (C58)", "OBJECT_ID": "2015-037A", "EPOCH": "2025-12-09T05:49:19.735392", "MEAN_MOTION": 1.86228936, "ECCENTRICITY": 0.00124384, "INCLINATION": 55.042, "RA_OF_ASC_NODE": 308.5839, "ARG_OF_PERICENTER": 267.3919, "MEAN_ANOMALY": 92.4547, "EPHEMERIS_TYPE": 0, "CLASSIFICATION_TYPE": "U", "NORAD_CAT_ID": 40748, "ELEMENT_SET_NO": 999, "REV_AT_EPOCH": 7058, "BSTAR": 0, "MEAN_MOTION_DOT": -7.5e-07, "MEAN_MOTION_DDOT": 0}, "tle": {"line1": "1 40748U 15037A   25343.24258953 -.00000075  00000+0  00000+0 0  9995", "line2": "2 40748  55.0420 308.5839 0012438 267.3919  92.4547  1.86228936 70588"}}, "geometry": {"type": "Point", "coordinates": [-102.57048213888686, -48.05085871389274]}}, {"type": "Feature", "properties": {"norad_id": 40749, "name": "BEIDOU-3S M1S (C57)", "group": "gnss", "lat": 31.408304092813342, "lon": 103.21062646509924, "alt_km": 21529.53456568446, "timestamp": "2025-12-11T07:02:23.973046+00:00", "meta": {"OBJECT_NAME": "BEIDOU-3S M1S (C57)", "OBJECT_ID": "2015-037B", "EPOCH": "2025-12-08T22:28:18.289056", "MEAN_MOTION": 1.86253835, "ECCENTRICITY": 0.0003421, "INCLINATION": 55.0388, "RA_OF_ASC_NODE": 308.5837, "ARG_OF_PERICENTER": 357.7489, "MEAN_ANOMALY": 2.238, "EPHEMERIS_TYPE": 0, "CLASSIFICATION_TYPE": "U", "NORAD_CAT_ID": 40749, "ELEMENT_SET_NO": 999, "REV_AT_EPOCH": 7058, "BSTAR": 0, "MEAN_MOTION_DOT": -7.4e-07, "MEAN_MOTION_DDOT": 0}, "tle": {"line1": "1 40749U 15037B   25342.93632279 -.00000074  00000+0  00000+0 0  9997", "line2": "2 40749  55.0388 308.5837 0003421 357.7489   2.2380  1.86253835 70588"}}, "geometry": {"type": "Point", "coordinates": [103.21062646509924, 31.408304092813342]}}, {"type": "Feature", "properties": {"norad_id": 40889, "name": "GSAT0205 (GALILEO 9)", "group": "gnss", "lat": -28.00651539868157, "lon": 68.6617343312718, "alt_km": 23243.36076796, "timestamp": "2025-12-11T07:02:23.973058+00:00", "meta": {"OBJECT_NAME": "GSAT0205 (GALILEO 9)", "OBJECT_ID": "2015-045A", "EPOCH": "2025-12-10T08:33:32.148576", "MEAN_MOTION": 1.7047308, "ECCENTRICITY": 0.0005904, "INCLINATION": 55.0041, "RA_OF_ASC_NODE": 226.8241, "ARG_OF_PERICENTER": 38.7722, "MEAN_ANOMALY": 321.3515, "EPHEMERIS_TYPE": 0, "CLASSIFICATION_TYPE": "U", "NORAD_CAT_ID": 40889, "ELEMENT_SET_NO": 999, "REV_AT_EPOCH": 6379, "BSTAR": 0, "MEAN_MOTION_DOT": 9e-08, "MEAN_MOTION_DDOT": 0}, "tle": {"line1": "1 40889U 15045A   25344.35662209  .00000009  00000+0  00000+0 0  9992", "line2": "2 40889  55.0041 226.8241 0005904  38.7722 321.3515  1.70473080 63793"}}, "geometry": {"type": "Point", "coordinates": [68.6617343312718, -28.00651539868157]}}, {"type": "Feature", "properties": {"norad_id": 40890, "name": "GSAT0206 (GALILEO 10)", "group": "gnss", "lat": 53.671667365827865, "lon": -61.04221546785644, "alt_km": 23207.743635885785, "timestamp": "2025-12-11T07:02:23.973068+00:00", "meta": {"OBJECT_NAME": "GSAT0206 (GALILEO 10)", "OBJECT_ID": "2015-045B", "EPOCH": "2025-12-09T23:46:35.187456", "MEAN_MOTION": 1.70473081, "ECCENTRICITY": 0.0003825, "INCLINATION": 55.0033, "RA_OF_ASC_NODE": 226.8293, "ARG_OF_PERICENTER": 36.5835, "MEAN_ANOMALY": 323.5254, "EPHEMERIS_TYPE": 0, "CLASSIFICATION_TYPE": "U", "NORAD_CAT_ID": 40890, "ELEMENT_SET_NO": 999, "REV_AT_EPOCH": 6381, "BSTAR": 0, "MEAN_MOTION_DOT": 9e-08, "MEAN_MOTION_DDOT": 0}, "tle": {"line1": "1 40890U 15045B   25343.99068504  .00000009  00000+0  00000+0 0  9991", "line2": "2 40890  55.0033 226.8293 0003825  36.5835 323.5254  1.70473081 63812"}}, "geometry": {"type": "Point", "coordinates": [-61.04221546785644, 53.671667365827865]}}]}